[{"OBJECT_NAME":"OBJECT F","OBJECT_ID":"2024-153F","EPOCH":"2026-03-09T23:13:25.507776","MEAN_MOTION":15.23037528,"ECCENTRICITY":0.00053669,"INCLINATION":97.6558,"RA_OF_ASC_NODE":203.2719,"ARG_OF_PERICENTER":225.0651,"MEAN_ANOMALY":135.0151,"EPHEMERIS_TYPE":0,"CLASSIFICATION_TYPE":"U","NORAD_CAT_ID":60750,"ELEMENT_SET_NO":999,"REV_AT_EPOCH":8468,"BSTAR":0.00084475391,"MEAN_MOTION_DOT":0.00019856,"MEAN_MOTION_DDOT":0},{"OBJECT_NAME":"OBJECT B","OBJECT_ID":"2025-234B","EPOCH":"2026-03-09T22:59:30.120864","MEAN_MOTION":15.19966812,"ECCENTRICITY":0.00128166,"INCLINATION":97.4853,"RA_OF_ASC_NODE":138.9577,"ARG_OF_PERICENTER":83.221,"MEAN_ANOMALY":277.0483,"EPHEMERIS_TYPE":0,"CLASSIFICATION_TYPE":"U","NORAD_CAT_ID":66054,"ELEMENT_SET_NO":999,"REV_AT_EPOCH":2156,"BSTAR":0.0003176198,"MEAN_MOTION_DOT":6.781e-5,"MEAN_MOTION_DDOT":0}]
